SENTINEL-6              
1 46984U 20086A   24056.17767383 -.00000034  00000+0  11926-3 0  9995
2 46984  66.0399  85.9922 0007849 270.6429  89.3686 12.80931078152477
